[{"OBJECT_NAME":"YAM-7","OBJECT_ID":"2024-149AN","EPOCH":"2026-03-09T17:13:55.117920","MEAN_MOTION":15.30304554,"ECCENTRICITY":0.00019733,"INCLINATION":97.3828,"RA_OF_ASC_NODE":149.4631,"ARG_OF_PERICENTER":296.5121,"MEAN_ANOMALY":63.5918,"EPHEMERIS_TYPE":0,"CLASSIFICATION_TYPE":"U","NORAD_CAT_ID":60504,"ELEMENT_SET_NO":999,"REV_AT_EPOCH":8683,"BSTAR":0.00030984439,"MEAN_MOTION_DOT":9.009e-5,"MEAN_MOTION_DDOT":0},{"OBJECT_NAME":"STARLINK-34167","OBJECT_ID":"2025-117AB","EPOCH":"2026-03-09T21:45:28.226016","MEAN_MOTION":15.3020776,"ECCENTRICITY":0.0001621,"INCLINATION":53.1625,"RA_OF_ASC_NODE":38.249,"ARG_OF_PERICENTER":140.5411,"MEAN_ANOMALY":219.5708,"EPHEMERIS_TYPE":0,"CLASSIFICATION_TYPE":"U","NORAD_CAT_ID":64228,"ELEMENT_SET_NO":999,"REV_AT_EPOCH":4459,"BSTAR":0.00068623604,"MEAN_MOTION_DOT":0.00020025,"MEAN_MOTION_DDOT":0}]
